{"type": "FeatureCollection", "features": [ {"type": "Feature", "properties": {"norad_id": 33905, "name": "COSMOS 2251 DEB", "group": "cosmos-2251-debris", "lat": 7.993063126883921, "lon": -38.64899642856496, "alt_km": 814.8316931898635, "timestamp": "2025-12-11T10:53:16.282683+00:00", "meta": {"OBJECT_NAME": "COSMOS 2251 DEB", "OBJECT_ID": "1993-036DJ", "EPOCH": "2025-12-11T04:14:20.165856", "MEAN_MOTION": 14.35376801, "ECCENTRICITY": 0.0058978, "INCLINATION": 73.8875, "RA_OF_ASC_NODE": 319.5373, "ARG_OF_PERICENTER": 209.3656, "MEAN_ANOMALY": 167.845, "EPHEMERIS_TYPE": 0, "CLASSIFICATION_TYPE": "U", "NORAD_CAT_ID": 33905, "ELEMENT_SET_NO": 999, "REV_AT_EPOCH": 87665, "BSTAR": 0.0010311, "MEAN_MOTION_DOT": 2.992e-05, "MEAN_MOTION_DDOT": 0}, "tle": {"line1": "1 33905U 93036DJ  25345.17662229  .00002992  00000+0  10311-2 0  9994", "line2": "2 33905  73.8875 319.5373 0058978 209.3656 167.8450 14.35376801876650"}}, "geometry": {"type": "Point", "coordinates": [-38.64899642856496, 7.993063126883921]}}, {"type": "Feature", "properties": {"norad_id": 33906, "name": "COSMOS 2251 DEB", "group": "cosmos-2251-debris", "lat": 25.929186134321487, "lon": 135.91516826846382, "alt_km": 725.744372412626, "timestamp": "2025-12-11T10:53:16.282694+00:00", "meta": {"OBJECT_NAME": "COSMOS 2251 DEB", "OBJECT_ID": "1993-036DK", "EPOCH": "2025-12-10T22:47:43.500192", "MEAN_MOTION": 14.57035639, "ECCENTRICITY": 0.0036626, "INCLINATION": 74.031, "RA_OF_ASC_NODE": 324.8749, "ARG_OF_PERICENTER": 354.5854, "MEAN_ANOMALY": 36.316, "EPHEMERIS_TYPE": 0, "CLASSIFICATION_TYPE": "U", "NORAD_CAT_ID": 33906, "ELEMENT_SET_NO": 999, "REV_AT_EPOCH": 87982, "BSTAR": 0.0031774, "MEAN_MOTION_DOT": 0.0001443, "MEAN_MOTION_DDOT": 0}, "tle": {"line1": "1 33906U 93036DK  25344.94980903  .00014430  00000+0  31774-2 0  9997", "line2": "2 33906  74.0310 324.8749 0036626 354.5854  36.3160 14.57035639879828"}}, "geometry": {"type": "Point", "coordinates": [135.91516826846382, 25.929186134321487]}}, {"type": "Feature", "properties": {"norad_id": 33907, "name": "COSMOS 2251 DEB", "group": "cosmos-2251-debris", "lat": -63.726208201824, "lon": -108.66402703598402, "alt_km": 870.9231717841649, "timestamp": "2025-12-11T10:53:16.282705+00:00", "meta": {"OBJECT_NAME": "COSMOS 2251 DEB", "OBJECT_ID": "1993-036DL", "EPOCH": "2025-12-10T10:17:45.557664", "MEAN_MOTION": 14.30470945, "ECCENTRICITY": 0.01124102, "INCLINATION": 74.0703, "RA_OF_ASC_NODE": 37.8483, "ARG_OF_PERICENTER": 94.0425, "MEAN_ANOMALY": 279.6363, "EPHEMERIS_TYPE": 0, "CLASSIFICATION_TYPE": "U", "NORAD_CAT_ID": 33907, "ELEMENT_SET_NO": 999, "REV_AT_EPOCH": 86547, "BSTAR": 0.0023554643, "MEAN_MOTION_DOT": 6.551e-05, "MEAN_MOTION_DDOT": 0}, "tle": {"line1": "1 33907U 93036DL  25344.42899951  .00006551  00000+0  23555-2 0  9996", "line2": "2 33907  74.0703  37.8483 0112410  94.0425 279.6363 14.30470945865474"}}, "geometry": {"type": "Point", "coordinates": [-108.66402703598402, -63.726208201824]}}, {"type": "Feature", "properties": {"norad_id": 33908, "name": "COSMOS 2251 DEB", "group": "cosmos-2251-debris", "lat": 25.104297344164962, "lon": -144.14282097430782, "alt_km": 1012.7326457126428, "timestamp": "2025-12-11T10:53:16.282716+00:00", "meta": {"OBJECT_NAME": "COSMOS 2251 DEB", "OBJECT_ID": "1993-036DM", "EPOCH": "2025-12-11T00:31:23.207232", "MEAN_MOTION": 14.07317822, "ECCENTRICITY": 0.0223235, "INCLINATION": 73.8377, "RA_OF_ASC_NODE": 208.8142, "ARG_OF_PERICENTER": 232.6613, "MEAN_ANOMALY": 125.4003, "EPHEMERIS_TYPE": 0, "CLASSIFICATION_TYPE": "U", "NORAD_CAT_ID": 33908, "ELEMENT_SET_NO": 999, "REV_AT_EPOCH": 85449, "BSTAR": 0.0026797, "MEAN_MOTION_DOT": 5.625e-05, "MEAN_MOTION_DDOT": 0}, "tle": {"line1": "1 33908U 93036DM  25345.02179638  .00005625  00000+0  26797-2 0  9999", "line2": "2 33908  73.8377 208.8142 0223235 232.6613 125.4003 14.07317822854495"}}, "geometry": {"type": "Point", "coordinates": [-144.14282097430782, 25.104297344164962]}}, {"type": "Feature", "properties": {"norad_id": 33911, "name": "COSMOS 2251 DEB", "group": "cosmos-2251-debris", "lat": -21.427997927243503, "lon": -9.214415964725564, "alt_km": 651.9259477296828, "timestamp": "2025-12-11T10:53:16.282728+00:00", "meta": {"OBJECT_NAME": "COSMOS 2251 DEB", "OBJECT_ID": "1993-036DQ", "EPOCH": "2025-12-10T16:38:42.275904", "MEAN_MOTION": 14.74752698, "ECCENTRICITY": 0.00143041, "INCLINATION": 74.0902, "RA_OF_ASC_NODE": 165.8376, "ARG_OF_PERICENTER": 107.4417, "MEAN_ANOMALY": 20.7154, "EPHEMERIS_TYPE": 0, "CLASSIFICATION_TYPE": "U", "NORAD_CAT_ID": 33911, "ELEMENT_SET_NO": 999, "REV_AT_EPOCH": 88614, "BSTAR": 0.0032257322, "MEAN_MOTION_DOT": 0.00021651, "MEAN_MOTION_DDOT": 0}, "tle": {"line1": "1 33911U 93036DQ  25344.69354486  .00021651  00000+0  32257-2 0  9996", "line2": "2 33911  74.0902 165.8376 0014304 107.4417  20.7154 14.74752698886142"}}, "geometry": {"type": "Point", "coordinates": [-9.214415964725564, -21.427997927243503]}}, {"type": "Feature", "properties": {"norad_id": 33912, "name": "COSMOS 2251 DEB", "group": "cosmos-2251-debris", "lat": -14.320874872916491, "lon": 16.33938245754485, "alt_km": 721.8255922979988, "timestamp": "2025-12-11T10:53:16.282739+00:00", "meta": {"OBJECT_NAME": "COSMOS 2251 DEB", "OBJECT_ID": "1993-036DR", "EPOCH": "2025-12-10T20:51:22.279968", "MEAN_MOTION": 14.51876874, "ECCENTRICITY": 0.0011496, "INCLINATION": 74.0335, "RA_OF_ASC_NODE": 193.2489, "ARG_OF_PERICENTER": 272.098, "MEAN_ANOMALY": 108.2278, "EPHEMERIS_TYPE": 0, "CLASSIFICATION_TYPE": "U", "NORAD_CAT_ID": 33912, "ELEMENT_SET_NO": 999, "REV_AT_EPOCH": 88406, "BSTAR": 0.0010179, "MEAN_MOTION_DOT": 4.079e-05, "MEAN_MOTION_DDOT": 0}, "tle": {"line1": "1 33912U 93036DR  25344.86900787  .00004079  00000+0  10179-2 0  9991", "line2": "2 33912  74.0335 193.2489 0011496 272.0980 108.2278 14.51876874884062"}}, "geometry": {"type": "Point", "coordinates": [16.33938245754485, -14.320874872916491]}}, {"type": "Feature", "properties": {"norad_id": 33913, "name": "COSMOS 2251 DEB", "group": "cosmos-2251-debris", "lat": -59.45409651649696, "lon": 157.03255432231563, "alt_km": 703.4546135683258, "timestamp": "2025-12-11T10:53:16.282750+00:00", "meta": {"OBJECT_NAME": "COSMOS 2251 DEB", "OBJECT_ID": "1993-036DS", "EPOCH": "2025-12-11T00:17:35.719008", "MEAN_MOTION": 14.48474621, "ECCENTRICITY": 0.0048171, "INCLINATION": 74.0334, "RA_OF_ASC_NODE": 186.8819, "ARG_OF_PERICENTER": 289.7669, "MEAN_ANOMALY": 225.6348, "EPHEMERIS_TYPE": 0, "CLASSIFICATION_TYPE": "U", "NORAD_CAT_ID": 33913, "ELEMENT_SET_NO": 999, "REV_AT_EPOCH": 88432, "BSTAR": 0.00075305, "MEAN_MOTION_DOT": 2.839e-05, "MEAN_MOTION_DDOT": 0}, "tle": {"line1": "1 33913U 93036DS  25345.01221897  .00002839  00000+0  75305-3 0  9993", "line2": "2 33913  74.0334 186.8819 0048171 289.7669 225.6348 14.48474621884327"}}, "geometry": {"type": "Point", "coordinates": [157.03255432231563, -59.45409651649696]}}, {"type": "Feature", "properties": {"norad_id": 33914, "name": "COSMOS 2251 DEB", "group": "cosmos-2251-debris", "lat": -70.71846409413143, "lon": -108.17557044560856, "alt_km": 1162.4303090839385, "timestamp": "2025-12-11T10:53:16.282761+00:00", "meta": {"OBJECT_NAME": "COSMOS 2251 DEB", "OBJECT_ID": "1993-036DT", "EPOCH": "2025-12-11T02:43:40.947168", "MEAN_MOTION": 13.71983167, "ECCENTRICITY": 0.0301302, "INCLINATION": 74.0914, "RA_OF_ASC_NODE": 17.7747, "ARG_OF_PERICENTER": 121.2098, "MEAN_ANOMALY": 256.7792, "EPHEMERIS_TYPE": 0, "CLASSIFICATION_TYPE": "U", "NORAD_CAT_ID": 33914, "ELEMENT_SET_NO": 999, "REV_AT_EPOCH": 84059, "BSTAR": 0.00055433, "MEAN_MOTION_DOT": 6.76e-06, "MEAN_MOTION_DDOT": 0}, "tle": {"line1": "1 33914U 93036DT  25345.11366837  .00000676  00000+0  55433-3 0  9996", "line2": "2 33914  74.0914  17.7747 0301302 121.2098 256.7792 13.71983167840592"}}, "geometry": {"type": "Point", "coordinates": [-108.17557044560856, -70.71846409413143]}}, {"type": "Feature", "properties": {"norad_id": 33915, "name": "COSMOS 2251 DEB", "group": "cosmos-2251-debris", "lat": 73.39639627569505, "lon": 110.09401447499938, "alt_km": 713.2722675914856, "timestamp": "2025-12-11T10:53:16.282772+00:00", "meta": {"OBJECT_NAME": "COSMOS 2251 DEB", "OBJECT_ID": "1993-036DU", "EPOCH": "2025-12-11T05:46:16.074048", "MEAN_MOTION": 14.35077874, "ECCENTRICITY": 0.0104469, "INCLINATION": 74.0443, "RA_OF_ASC_NODE": 36.8546, "ARG_OF_PERICENTER": 129.8148, "MEAN_ANOMALY": 295.4089, "EPHEMERIS_TYPE": 0, "CLASSIFICATION_TYPE": "U", "NORAD_CAT_ID": 33915, "ELEMENT_SET_NO": 999, "REV_AT_EPOCH": 87736, "BSTAR": 0.00058509, "MEAN_MOTION_DOT": 1.75e-05, "MEAN_MOTION_DDOT": 0}, "tle": {"line1": "1 33915U 93036DU  25345.24046382  .00001750  00000+0  58509-3 0  9992", "line2": "2 33915  74.0443  36.8546 0104469 129.8148 295.4089 14.35077874877368"}}, "geometry": {"type": "Point", "coordinates": [110.09401447499938, 73.39639627569505]}}, {"type": "Feature", "properties": {"norad_id": 33916, "name": "COSMOS 2251 DEB", "group": "cosmos-2251-debris", "lat": 4.012441596362093, "lon": -138.44714122714373, "alt_km": 817.8368747052436, "timestamp": "2025-12-11T10:53:16.282783+00:00", "meta": {"OBJECT_NAME": "COSMOS 2251 DEB", "OBJECT_ID": "1993-036DV", "EPOCH": "2025-12-11T05:06:52.735968", "MEAN_MOTION": 13.68611051, "ECCENTRICITY": 0.0325371, "INCLINATION": 74.0529, "RA_OF_ASC_NODE": 43.0971, "ARG_OF_PERICENTER": 215.5622, "MEAN_ANOMALY": 217.732, "EPHEMERIS_TYPE": 0, "CLASSIFICATION_TYPE": "U", "NORAD_CAT_ID": 33916, "ELEMENT_SET_NO": 999, "REV_AT_EPOCH": 83870, "BSTAR": 0.00066129, "MEAN_MOTION_DOT": 7.98e-06, "MEAN_MOTION_DDOT": 0}, "tle": {"line1": "1 33916U 93036DV  25345.21311037  .00000798  00000+0  66129-3 0  9990", "line2": "2 33916  74.0529  43.0971 0325371 215.5622 217.7320 13.68611051838709"}}, "geometry": {"type": "Point", "coordinates": [-138.44714122714373, 4.012441596362093]}}]}